[
    {
        "Altitude(m)": 611967.1975251227,
        "Argument of Periapsis(deg)": 0.0,
        "Eccentricity": 0.0,
        "Inclination(deg)": 60.0,
        "Latitude(deg)": 59.14021793632286,
        "Longitude(deg)": 151.09221186188248,
        "Mean Anomaly(deg)": 98.18180000000002,
        "RAAN(deg)": 145.0,
        "Satellite Name": "Test1 644",
        "Satellite Number": 644,
        "Semi-Major Axis(m)": 6980739.136638005,
        "Time(s)": 0
    },
    {
        "Altitude(m)": 611934.396838221,
        "Argument of Periapsis(deg)": 0.00010418945913296404,
        "Eccentricity": 0.0,
        "Inclination(deg)": 60.0,
        "Latitude(deg)": 58.98657829983855,
        "Longitude(deg)": 152.215458461228,
        "Mean Anomaly(deg)": 98.80190614546183,
        "RAAN(deg)": 144.99957995086027,
        "Satellite Name": "Test1 644",
        "Satellite Number": 644,
        "Semi-Major Axis(m)": 6980739.136638005,
        "Time(s)": 10
    }
]